{
  "type": "FeatureCollection",
  "features": [
    {
      "type": "Feature",
      "properties": {
        "norad_id": 41866,
        "name": "GOES 16",
        "group": "weather",
        "lat": 0.011207447186366879,
        "lon": 87.94722785188233,
        "alt_km": 35798.79143390168,
        "timestamp": "2025-12-18T07:01:54.229503+00:00",
        "meta_object_name": "GOES 16",
        "meta_object_id": "2016-071A",
        "meta_epoch": "2025-12-17T21:23:19.231584",
        "meta_mean_motion": 1.00272331,
        "meta_eccentricity": 0.00030388,
        "meta_inclination": 0.0692,
        "meta_ra_of_asc_node": 104.9948,
        "meta_arg_of_pericenter": 160.0571,
        "meta_mean_anomaly": 37.8661,
        "meta_ephemeris_type": 0,
        "meta_classification_type": "U",
        "meta_norad_cat_id": 41866,
        "meta_element_set_no": 999,
        "meta_rev_at_epoch": 3328,
        "meta_bstar": 0,
        "meta_mean_motion_dot": -6.6e-07,
        "meta_mean_motion_ddot": 0,
        "tle_line1": "1 41866U 16071A   25351.89119481 -.00000066  00000+0  00000+0 0  9998",
        "tle_line2": "2 41866   0.0692 104.9948 0003038 160.0571  37.8661  1.00272331 33289"
      },
      "geometry": {
        "type": "Point",
        "coordinates": [
          87.94722785188233,
          0.011207447186366879
        ]
      }
    },
    {
      "type": "Feature",
      "properties": {
        "norad_id": 41882,
        "name": "FENGYUN 4A",
        "group": "weather",
        "lat": -1.5237487955198907,
        "lon": -43.56766539591204,
        "alt_km": 35787.694258602955,
        "timestamp": "2025-12-18T07:01:54.229515+00:00",
        "meta_object_name": "FENGYUN 4A",
        "meta_object_id": "2016-077A",
        "meta_epoch": "2025-12-17T20:45:45.328608",
        "meta_mean_motion": 1.00267498,
        "meta_eccentricity": 0.0004519,
        "meta_inclination": 1.862,
        "meta_ra_of_asc_node": 82.3435,
        "meta_arg_of_pericenter": 143.3411,
        "meta_mean_anomaly": 296.2663,
        "meta_ephemeris_type": 0,
        "meta_classification_type": "U",
        "meta_norad_cat_id": 41882,
        "meta_element_set_no": 999,
        "meta_rev_at_epoch": 3311,
        "meta_bstar": 0,
        "meta_mean_motion_dot": -3.33e-06,
        "meta_mean_motion_ddot": 0,
        "tle_line1": "1 41882U 16077A   25351.86510797 -.00000333  00000+0  00000+0 0  9991",
        "tle_line2": "2 41882   1.8620  82.3435 0004519 143.3411 296.2663  1.00267498 33112"
      },
      "geometry": {
        "type": "Point",
        "coordinates": [
          -43.56766539591204,
          -1.5237487955198907
        ]
      }
    },
    {
      "type": "Feature",
      "properties": {
        "norad_id": 41884,
        "name": "CYGFM05",
        "group": "weather",
        "lat": 19.90218421880325,
        "lon": 42.06044768057904,
        "alt_km": 425.97613193877896,
        "timestamp": "2025-12-18T07:01:54.229527+00:00",
        "meta_object_name": "CYGFM05",
        "meta_object_id": "2016-078A",
        "meta_epoch": "2025-12-17T18:29:28.179456",
        "meta_mean_motion": 15.47820001,
        "meta_eccentricity": 0.00106647,
        "meta_inclination": 34.9607,
        "meta_ra_of_asc_node": 14.265,
        "meta_arg_of_pericenter": 228.0607,
        "meta_mean_anomaly": 131.9207,
        "meta_ephemeris_type": 0,
        "meta_classification_type": "U",
        "meta_norad_cat_id": 41884,
        "meta_element_set_no": 999,
        "meta_rev_at_epoch": 50054,
        "meta_bstar": 0.00030107417,
        "meta_mean_motion_dot": 0.00016139,
        "meta_mean_motion_ddot": 0,
        "tle_line1": "1 41884U 16078A   25351.77046504  .00016139  00000+0  30107-3 0  9999",
        "tle_line2": "2 41884  34.9607  14.2650 0010664 228.0607 131.9207 15.47820001500541"
      },
      "geometry": {
        "type": "Point",
        "coordinates": [
          42.06044768057904,
          19.90218421880325
        ]
      }
    },
    {
      "type": "Feature",
      "properties": {
        "norad_id": 41885,
        "name": "CYGFM04",
        "group": "weather",
        "lat": -16.197568370805275,
        "lon": -39.12476233263754,
        "alt_km": 413.69155579198923,
        "timestamp": "2025-12-18T07:01:54.229538+00:00",
        "meta_object_name": "CYGFM04",
        "meta_object_id": "2016-078B",
        "meta_epoch": "2025-12-17T09:31:26.788512",
        "meta_mean_motion": 15.50553035,
        "meta_eccentricity": 0.00097836,
        "meta_inclination": 34.9357,
        "meta_ra_of_asc_node": 351.3477,
        "meta_arg_of_pericenter": 250.2509,
        "meta_mean_anomaly": 109.7158,
        "meta_ephemeris_type": 0,
        "meta_classification_type": "U",
        "meta_norad_cat_id": 41885,
        "meta_element_set_no": 999,
        "meta_rev_at_epoch": 50066,
        "meta_bstar": 0.0003301433,
        "meta_mean_motion_dot": 0.00019503,
        "meta_mean_motion_ddot": 0,
        "tle_line1": "1 41885U 16078B   25351.39683783  .00019503  00000+0  33014-3 0  9992",
        "tle_line2": "2 41885  34.9357 351.3477 0009783 250.2509 109.7158 15.50553035500669"
      },
      "geometry": {
        "type": "Point",
        "coordinates": [
          -39.12476233263754,
          -16.197568370805275
        ]
      }
    },
    {
      "type": "Feature",
      "properties": {
        "norad_id": 41886,
        "name": "CYGFM02",
        "group": "weather",
        "lat": 6.6763941132876745,
        "lon": -6.629670209054328,
        "alt_km": 411.9951887426505,
        "timestamp": "2025-12-18T07:01:54.229548+00:00",
        "meta_object_name": "CYGFM02",
        "meta_object_id": "2016-078C",
        "meta_epoch": "2025-12-17T17:05:13.985088",
        "meta_mean_motion": 15.51959482,
        "meta_eccentricity": 0.00114929,
        "meta_inclination": 34.9446,
        "meta_ra_of_asc_node": 347.5407,
        "meta_arg_of_pericenter": 252.9,
        "meta_mean_anomaly": 107.0464,
        "meta_ephemeris_type": 0,
        "meta_classification_type": "U",
        "meta_norad_cat_id": 41886,
        "meta_element_set_no": 999,
        "meta_rev_at_epoch": 50084,
        "meta_bstar": 0.00033366708,
        "meta_mean_motion_dot": 0.00020752,
        "meta_mean_motion_ddot": 0,
        "tle_line1": "1 41886U 16078C   25351.71196742  .00020752  00000+0  33367-3 0  9992",
        "tle_line2": "2 41886  34.9446 347.5407 0011492 252.9000 107.0464 15.51959482500842"
      },
      "geometry": {
        "type": "Point",
        "coordinates": [
          -6.629670209054328,
          6.6763941132876745
        ]
      }
    },
    {
      "type": "Feature",
      "properties": {
        "norad_id": 41887,
        "name": "CYGFM01",
        "group": "weather",
        "lat": 34.891141606575694,
        "lon": 106.01915178141356,
        "alt_km": 419.65032593103206,
        "timestamp": "2025-12-18T07:01:54.229559+00:00",
        "meta_object_name": "CYGFM01",
        "meta_object_id": "2016-078D",
        "meta_epoch": "2025-12-17T18:15:19.969920",
        "meta_mean_motion": 15.48404489,
        "meta_eccentricity": 0.00102619,
        "meta_inclination": 34.9438,
        "meta_ra_of_asc_node": 16.6435,
        "meta_arg_of_pericenter": 220.3552,
        "meta_mean_anomaly": 139.6409,
        "meta_ephemeris_type": 0,
        "meta_classification_type": "U",
        "meta_norad_cat_id": 41887,
        "meta_element_set_no": 999,
        "meta_rev_at_epoch": 50048,
        "meta_bstar": 0.00029799004,
        "meta_mean_motion_dot": 0.00016303,
        "meta_mean_motion_ddot": 0,
        "tle_line1": "1 41887U 16078D   25351.76064780  .00016303  00000+0  29799-3 0  9995",
        "tle_line2": "2 41887  34.9438  16.6435 0010261 220.3552 139.6409 15.48404489500481"
      },
      "geometry": {
        "type": "Point",
        "coordinates": [
          106.01915178141356,
          34.891141606575694
        ]
      }
    },
    {
      "type": "Feature",
      "properties": {
        "norad_id": 41888,
        "name": "CYGFM08",
        "group": "weather",
        "lat": 8.477430214311905,
        "lon": 163.7642513734919,
        "alt_km": 414.56471999114547,
        "timestamp": "2025-12-18T07:01:54.229570+00:00",
        "meta_object_name": "CYGFM08",
        "meta_object_id": "2016-078E",
        "meta_epoch": "2025-12-17T10:13:20.352000",
        "meta_mean_motion": 15.49609787,
        "meta_eccentricity": 0.00119546,
        "meta_inclination": 34.9467,
        "meta_ra_of_asc_node": 1.7697,
        "meta_arg_of_pericenter": 240.3602,
        "meta_mean_anomaly": 119.593,
        "meta_ephemeris_type": 0,
        "meta_classification_type": "U",
        "meta_norad_cat_id": 41888,
        "meta_element_set_no": 999,
        "meta_rev_at_epoch": 50066,
        "meta_bstar": 0.00032626719,
        "meta_mean_motion_dot": 0.00018652,
        "meta_mean_motion_ddot": 0,
        "tle_line1": "1 41888U 16078E   25351.42593000  .00018652  00000+0  32627-3 0  9994",
        "tle_line2": "2 41888  34.9467   1.7697 0011954 240.3602 119.5930 15.49609787500662"
      },
      "geometry": {
        "type": "Point",
        "coordinates": [
          163.7642513734919,
          8.477430214311905
        ]
      }
    }
  ]
}